start=new Date('2022-01-21T00:00:00.000Z').valueOf();
sats=[{"OBJECT_NAME":"STARLINK-1991","EPHEMERIS_TYPE":"0","OBJECT_ID":"2021-009AR","MEAN_MOTION_DDOT":"0.0000000000000","ELEMENT_SET_NO":"999","MEAN_ANOMALY":"292.3577","REF_FRAME":"TEME","APOAPSIS":"548.515","NORAD_CAT_ID":"47587","ECCENTRICITY":"0.00019170","DECAY_DATE":null,"EPOCH":"2022-01-20T11:28:36.727968","MEAN_MOTION_DOT":"0.00003077","GP_ID":"194260557","BSTAR":"0.00022534000000","MEAN_ELEMENT_THEORY":"SGP4","TLE_LINE2":"2 47587  53.0560 306.7403 0001917  67.7616 292.3577 15.06408488 53463","CLASSIFICATION_TYPE":"U","INCLINATION":"53.0560","SITE":"AFETR","PERIAPSIS":"545.860","MEAN_MOTION":"15.06408488","TLE_LINE1":"1 47587U 21009AR  22020.47820287  .00003077  00000-0  22534-3 0  9993","SEMIMAJOR_AXIS":"6925.323","COUNTRY_CODE":"US","PERIOD":"95.592","TIME_SYSTEM":"UTC","LAUNCH_DATE":"2021-02-04","ARG_OF_PERICENTER":"67.7616","RCS_SIZE":"LARGE","CENTER_NAME":"EARTH","RA_OF_ASC_NODE":"306.7403","OBJECT_TYPE":"PAYLOAD","REV_AT_EPOCH":"5346","FILE":"3278533"},{"GP_ID":"194267973","BSTAR":"0.00026087000000","MEAN_MOTION_DOT":"0.00003608","MEAN_MOTION":"15.06416474","TLE_LINE1":"1 47588U 21009AS  22020.53625996  .00003608  00000-0  26087-3 0  9998","MEAN_ELEMENT_THEORY":"SGP4","TLE_LINE2":"2 47588  53.0535 316.4733 0001811  64.3995 295.7181 15.06416474 53941","CLASSIFICATION_TYPE":"U","INCLINATION":"53.0535","SITE":"AFETR","PERIAPSIS":"545.909","PERIOD":"95.591","TIME_SYSTEM":"UTC","SEMIMAJOR_AXIS":"6925.298","COUNTRY_CODE":"US","RA_OF_ASC_NODE":"316.4733","OBJECT_TYPE":"PAYLOAD","REV_AT_EPOCH":"5394","FILE":"3278682","LAUNCH_DATE":"2021-02-04","RCS_SIZE":"LARGE","ARG_OF_PERICENTER":"64.3995","CENTER_NAME":"EARTH","OBJECT_NAME":"STARLINK-1993","EPHEMERIS_TYPE":"0","MEAN_ANOMALY":"295.7181","REF_FRAME":"TEME","OBJECT_ID":"2021-009AS","MEAN_MOTION_DDOT":"0.0000000000000","ELEMENT_SET_NO":"999","NORAD_CAT_ID":"47588","ECCENTRICITY":"0.00018110","DECAY_DATE":null,"EPOCH":"2022-01-20T12:52:12.860544","APOAPSIS":"548.417"},{"OBJECT_NAME":"STARLINK-1994","EPHEMERIS_TYPE":"0","MEAN_MOTION_DDOT":"0.0000000000000","OBJECT_ID":"2021-009AT","ELEMENT_SET_NO":"999","REF_FRAME":"TEME","MEAN_ANOMALY":"292.4955","APOAPSIS":"548.397","ECCENTRICITY":"0.00017310","NORAD_CAT_ID":"47589","EPOCH":"2022-01-20T13:18:45.209952","DECAY_DATE":null,"MEAN_MOTION_DOT":"0.00002651","GP_ID":"194260057","BSTAR":"0.00019677000000","MEAN_ELEMENT_THEORY":"SGP4","TLE_LINE2":"2 47589  53.0561 316.3946 0001731  67.6217 292.4955 15.06405101 53331","CLASSIFICATION_TYPE":"U","PERIAPSIS":"545.999","INCLINATION":"53.0561","SITE":"AFETR","MEAN_MOTION":"15.06405101","TLE_LINE1":"1 47589U 21009AT  22020.55468993  .00002651  00000-0  19677-3 0  9997","SEMIMAJOR_AXIS":"6925.333","COUNTRY_CODE":"US","TIME_SYSTEM":"UTC","PERIOD":"95.592","RCS_SIZE":"LARGE","ARG_OF_PERICENTER":"67.6217","LAUNCH_DATE":"2021-02-04","CENTER_NAME":"EARTH","OBJECT_TYPE":"PAYLOAD","RA_OF_ASC_NODE":"316.3946","FILE":"3278533","REV_AT_EPOCH":"5333"},{"APOAPSIS":"548.451","ECCENTRICITY":"0.00018890","NORAD_CAT_ID":"47590","EPOCH":"2022-01-20T06:43:20.021376","DECAY_DATE":null,"MEAN_MOTION_DDOT":"0.0000000000000","OBJECT_ID":"2021-009AU","ELEMENT_SET_NO":"999","REF_FRAME":"TEME","MEAN_ANOMALY":"303.4586","OBJECT_NAME":"STARLINK-1995","EPHEMERIS_TYPE":"0","RCS_SIZE":"LARGE","ARG_OF_PERICENTER":"56.6583","LAUNCH_DATE":"2021-02-04","CENTER_NAME":"EARTH","OBJECT_TYPE":"PAYLOAD","RA_OF_ASC_NODE":"337.6221","FILE":"3278533","REV_AT_EPOCH":"5301","SEMIMAJOR_AXIS":"6925.278","COUNTRY_CODE":"US","TIME_SYSTEM":"UTC","PERIOD":"95.591","TLE_LINE2":"2 47590  53.0560 337.6221 0001889  56.6583 303.4586 15.06423010 53019","CLASSIFICATION_TYPE":"U","MEAN_ELEMENT_THEORY":"SGP4","PERIAPSIS":"545.835","SITE":"AFETR","INCLINATION":"53.0560","MEAN_MOTION":"15.06423010","TLE_LINE1":"1 47590U 21009AU  22020.28009284  .00010844  00000-0  74529-3 0  9993","MEAN_MOTION_DOT":"0.00010844","BSTAR":"0.00074529000000","GP_ID":"194260303"},{"CENTER_NAME":"EARTH","RCS_SIZE":"LARGE","ARG_OF_PERICENTER":"70.6951","LAUNCH_DATE":"2021-02-04","FILE":"3278682","REV_AT_EPOCH":"5396","OBJECT_TYPE":"PAYLOAD","RA_OF_ASC_NODE":"315.5102","COUNTRY_CODE":"US","SEMIMAJOR_AXIS":"6925.321","TIME_SYSTEM":"UTC","PERIOD":"95.592","PERIAPSIS":"546.003","INCLINATION":"53.0574","SITE":"AFETR","CLASSIFICATION_TYPE":"U","TLE_LINE2":"2 47591  53.0574 315.5102 0001708  70.6951 289.4222 15.06408969 53963","MEAN_ELEMENT_THEORY":"SGP4","TLE_LINE1":"1 47591U 21009AV  22020.75006409  .00005779  00000-0  40646-3 0  9996","MEAN_MOTION":"15.06408969","MEAN_MOTION_DOT":"0.00005779","BSTAR":"0.00040646000000","GP_ID":"194268472","APOAPSIS":"548.369","EPOCH":"2022-01-20T18:00:05.537376","DECAY_DATE":null,"ECCENTRICITY":"0.00017080","NORAD_CAT_ID":"47591","ELEMENT_SET_NO":"999","MEAN_MOTION_DDOT":"0.0000000000000","OBJECT_ID":"2021-009AV","REF_FRAME":"TEME","MEAN_ANOMALY":"289.4222","EPHEMERIS_TYPE":"0","OBJECT_NAME":"STARLINK-1996"},{"REF_FRAME":"TEME","MEAN_ANOMALY":"298.1179","ELEMENT_SET_NO":"999","MEAN_MOTION_DDOT":"0.0000000000000","OBJECT_ID":"2021-009AW","EPHEMERIS_TYPE":"0","OBJECT_NAME":"STARLINK-1997","EPOCH":"2022-01-20T13:58:33.655872","DECAY_DATE":null,"ECCENTRICITY":"0.00017830","NORAD_CAT_ID":"47592","APOAPSIS":"548.430","TLE_LINE1":"1 47592U 21009AW  22020.58233398  .00001917  00000-0  14752-3 0  9996","MEAN_MOTION":"15.06405935","PERIAPSIS":"545.961","INCLINATION":"53.0547","SITE":"AFETR","MEAN_ELEMENT_THEORY":"SGP4","TLE_LINE2":"2 47592  53.0547 336.2784 0001783  61.9990 298.1179 15.06405935 53057","CLASSIFICATION_TYPE":"U","GP_ID":"194261310","BSTAR":"0.00014752000000","MEAN_MOTION_DOT":"0.00001917","FILE":"3278533","REV_AT_EPOCH":"5305","RA_OF_ASC_NODE":"336.2784","OBJECT_TYPE":"PAYLOAD","CENTER_NAME":"EARTH","RCS_SIZE":"LARGE","ARG_OF_PERICENTER":"61.9990","LAUNCH_DATE":"2021-02-04","TIME_SYSTEM":"UTC","PERIOD":"95.592","COUNTRY_CODE":"US","SEMIMAJOR_AXIS":"6925.330"},{"APOAPSIS":"548.533","EPOCH":"2022-01-20T08:29:30.517152","DECAY_DATE":null,"ECCENTRICITY":"0.00019830","NORAD_CAT_ID":"47593","EPHEMERIS_TYPE":"0","OBJECT_NAME":"STARLINK-1998","ELEMENT_SET_NO":"999","MEAN_MOTION_DDOT":"0.0000000000000","OBJECT_ID":"2021-009AX","REF_FRAME":"TEME","MEAN_ANOMALY":"305.9446","COUNTRY_CODE":"US","SEMIMAJOR_AXIS":"6925.295","TIME_SYSTEM":"UTC","PERIOD":"95.591","CENTER_NAME":"EARTH","ARG_OF_PERICENTER":"54.1727","RCS_SIZE":"LARGE","LAUNCH_DATE":"2021-02-04","FILE":"3278533","REV_AT_EPOCH":"5302","OBJECT_TYPE":"PAYLOAD","RA_OF_ASC_NODE":"337.2935","MEAN_MOTION_DOT":"0.00011415","BSTAR":"0.00078363000000","GP_ID":"194259557","PERIAPSIS":"545.787","SITE":"AFETR","INCLINATION":"53.0543","TLE_LINE2":"2 47593  53.0543 337.2935 0001983  54.1727 305.9446 15.06417414 53023","MEAN_ELEMENT_THEORY":"SGP4","CLASSIFICATION_TYPE":"U","TLE_LINE1":"1 47593U 21009AX  22020.35382543  .00011415  00000-0  78363-3 0  9991","MEAN_MOTION":"15.06417414"},{"BSTAR":"0.00046087000000","GP_ID":"194259803","MEAN_MOTION_DOT":"0.00006592","MEAN_MOTION":"15.06411986","TLE_LINE1":"1 47594U 21009AY  22020.58603360  .00006592  00000-0  46087-3 0  9998","MEAN_ELEMENT_THEORY":"SGP4","TLE_LINE2":"2 47594  53.0552 336.2610 0001725  61.1671 298.9491 15.06411986 53055","CLASSIFICATION_TYPE":"U","SITE":"AFETR","INCLINATION":"53.0552","PERIAPSIS":"545.982","PERIOD":"95.591","TIME_SYSTEM":"UTC","SEMIMAJOR_AXIS":"6925.312","COUNTRY_CODE":"US","OBJECT_TYPE":"PAYLOAD","RA_OF_ASC_NODE":"336.2610","REV_AT_EPOCH":"5305","FILE":"3278533","LAUNCH_DATE":"2021-02-04","RCS_SIZE":"LARGE","ARG_OF_PERICENTER":"61.1671","CENTER_NAME":"EARTH","OBJECT_NAME":"STARLINK-1999","EPHEMERIS_TYPE":"0","MEAN_ANOMALY":"298.9491","REF_FRAME":"TEME","OBJECT_ID":"2021-009AY","MEAN_MOTION_DDOT":"0.0000000000000","ELEMENT_SET_NO":"999","NORAD_CAT_ID":"47594","ECCENTRICITY":"0.00017250","DECAY_DATE":null,"EPOCH":"2022-01-20T14:03:53.303040","APOAPSIS":"548.371"},{"OBJECT_TYPE":"PAYLOAD","RA_OF_ASC_NODE":"336.3250","FILE":"3278682","REV_AT_EPOCH":"5365","RCS_SIZE":"LARGE","ARG_OF_PERICENTER":"66.9768","LAUNCH_DATE":"2021-02-04","CENTER_NAME":"EARTH","TIME_SYSTEM":"UTC","PERIOD":"95.592","SEMIMAJOR_AXIS":"6925.319","COUNTRY_CODE":"US","MEAN_MOTION":"15.06409794","TLE_LINE1":"1 47595U 21009AZ  22020.57127748  .00000602  00000-0  59331-4 0  9992","TLE_LINE2":"2 47595  53.0557 336.3250 0001705  66.9768 293.1400 15.06409794 53657","CLASSIFICATION_TYPE":"U","MEAN_ELEMENT_THEORY":"SGP4","PERIAPSIS":"546.003","SITE":"AFETR","INCLINATION":"53.0557","BSTAR":"0.00005933100000","GP_ID":"194268471","MEAN_MOTION_DOT":"0.00000602","ECCENTRICITY":"0.00017050","NORAD_CAT_ID":"47595","EPOCH":"2022-01-20T13:42:38.374272","DECAY_DATE":null,"APOAPSIS":"548.364","REF_FRAME":"TEME","MEAN_ANOMALY":"293.1400","MEAN_MOTION_DDOT":"0.0000000000000","OBJECT_ID":"2021-009AZ","ELEMENT_SET_NO":"999","OBJECT_NAME":"STARLINK-2000","EPHEMERIS_TYPE":"0"},{"ECCENTRICITY":"0.00018460","NORAD_CAT_ID":"47596","EPOCH":"2022-01-20T13:47:56.910336","DECAY_DATE":null,"APOAPSIS":"548.506","REF_FRAME":"TEME","MEAN_ANOMALY":"298.1695","MEAN_MOTION_DDOT":"0.0000000000000","OBJECT_ID":"2021-009BA","ELEMENT_SET_NO":"999","OBJECT_NAME":"STARLINK-2001","EPHEMERIS_TYPE":"0","OBJECT_TYPE":"PAYLOAD","RA_OF_ASC_NODE":"336.3094","FILE":"3278682","REV_AT_EPOCH":"5365","ARG_OF_PERICENTER":"61.9480","RCS_SIZE":"LARGE","LAUNCH_DATE":"2021-02-04","CENTER_NAME":"EARTH","TIME_SYSTEM":"UTC","PERIOD":"95.592","SEMIMAJOR_AXIS":"6925.363","COUNTRY_CODE":"US","MEAN_MOTION":"15.06395439","TLE_LINE1":"1 47596U 21009BA  22020.57496424 -.00001715  00000-0 -96232-4 0  9992","TLE_LINE2":"2 47596  53.0546 336.3094 0001846  61.9480 298.1695 15.06395439 53655","CLASSIFICATION_TYPE":"U","MEAN_ELEMENT_THEORY":"SGP4","PERIAPSIS":"545.949","SITE":"AFETR","INCLINATION":"53.0546","GP_ID":"194267967","BSTAR":"-0.00009623200000","MEAN_MOTION_DOT":"-0.00001715"}];
